NORAD_CAT_ID,OBJECT_NAME,OBJECT_TYPE,EPOCH,MEAN_MOTION,ECCENTRICITY,INCLINATION,RA_OF_ASC_NODE,ARG_OF_PERICENTER,MEAN_ANOMALY,BSTAR,MEAN_MOTION_DOT,MEAN_MOTION_DDOT,TLE_LINE0,TLE_LINE1,TLE_LINE2,SEMIMAJOR_AXIS,PERIOD,APOGEE,PERIGEE,DECAYED
53537.0,STARLINK-4120,PAYLOAD,2023-08-01 20:27:57,15.08845516,0.00011,53.2179,22.5607,79.2814,280.8302,0.00016233,2.297e-05,0.0,0 STARLINK-4120,1 53537U 22101L   23213.85275021  .00002297  00000-0  16233-3 0  9998,2 53537  53.2179  22.5607 0001100  79.2814 280.8302 15.08845516 52628,6917.864,95.437,540.489,538.968,0.0
53537.0,STARLINK-4120,PAYLOAD,2023-08-02 10:46:26,15.08840254,0.0001197,53.217,19.8857,87.9171,272.1959,0.0001665,2.363e-05,0.0,0 STARLINK-4120,1 53537U 22101L   23214.44891412  .00002363  00000-0  16650-3 0  9999,2 53537  53.2170  19.8857 0001197  87.9171 272.1959 15.08840254 52719,6917.88,95.438,540.573,538.917,0.0
53537.0,STARLINK-4120,PAYLOAD,2023-08-02 18:43:21,15.08850594,0.0001041,53.2171,18.3982,96.3128,263.7983,0.00029754,4.452e-05,0.0,0 STARLINK-4120,1 53537U 22101L   23214.78010895  .00004452  00000-0  29754-3 0  9994,2 53537  53.2171  18.3982 0001041  96.3128 263.7983 15.08850594 52763,6917.848,95.437,540.433,538.993,0.0
53537.0,STARLINK-4120,PAYLOAD,2023-08-03 16:58:45,15.08847199,9.92e-05,53.2178,14.2336,93.7466,266.364,0.00018716,2.693e-05,0.0,0 STARLINK-4120,1 53537U 22101L   23215.70746976  .00002693  00000-0  18716-3 0  9994,2 53537  53.2178  14.2336 0000992  93.7466 266.3640 15.08847199 52900,6917.858,95.437,540.41,539.037,0.0
53537.0,STARLINK-4120,PAYLOAD,2023-08-04 16:49:32,15.08842906,0.000104,53.2174,9.7751,83.4187,276.6924,6.8569e-05,8.04e-06,0.0,0 STARLINK-4120,1 53537U 22101L   23216.70107378  .00000804  00000-0  68569-4 0  9996,2 53537  53.2174   9.7751 0001040  83.4187 276.6924 15.08842906 53054,6917.872,95.437,540.456,539.017,0.0
53537.0,STARLINK-4120,PAYLOAD,2023-08-06 10:09:34,15.08830148,0.0001086,53.2173,2.0459,94.1878,265.9238,-7.5488e-05,-1.489e-05,0.0,0 STARLINK-4120,1 53537U 22101L   23218.42332126 -.00001489  00000-0 -75488-4 0  9998,2 53537  53.2173   2.0459 0001086  94.1878 265.9238 15.08830148 53313,6917.911,95.438,540.527,539.024,0.0
53537.0,STARLINK-4120,PAYLOAD,2023-08-07 16:21:54,15.08850348,8.89e-05,53.218,356.3953,103.3328,256.7763,0.0008645,0.00013501,0.0,0 STARLINK-4120,1 53537U 22101L   23219.68188605  .00013501  00000-0  86450-3 0  9994,2 53537  53.2180 356.3953 0000889 103.3328 256.7763 15.08850348 53504,6917.849,95.437,540.329,539.099,0.0
53537.0,STARLINK-4120,PAYLOAD,2023-08-08 09:51:09,15.08850708,9.01e-05,53.2179,353.1248,99.8896,260.2198,0.00022556,3.305e-05,0.0,0 STARLINK-4120,1 53537U 22101L   23220.41052233  .00003305  00000-0  22556-3 0  9992,2 53537  53.2179 353.1248 0000901  99.8896 260.2198 15.08850708 53612,6917.848,95.437,540.336,539.089,0.0
53537.0,STARLINK-4120,PAYLOAD,2023-08-09 01:45:00,15.08841187,0.0001295,53.2169,350.1464,88.7745,271.3396,-3.4524e-05,-8.37e-06,0.0,0 STARLINK-4120,1 53537U 22101L   23221.07292192 -.00000837  00000-0 -34524-4 0  9993,2 53537  53.2169 350.1464 0001295  88.7745 271.3396 15.08841187 53710,6917.877,95.437,540.638,538.846,0.0
53537.0,STARLINK-4120,PAYLOAD,2023-08-10 03:11:10,15.08842632,8.47e-05,53.2181,345.3927,85.5363,274.5726,1.3198e-06,-2.67e-06,0.0,0 STARLINK-4120,1 53537U 22101L   23222.13276176 -.00000267  00000-0  13198-5 0  9996,2 53537  53.2181 345.3927 0000847  85.5363 274.5726 15.08842632 53872,6917.872,95.437,540.323,539.151,0.0
53537.0,STARLINK-4120,PAYLOAD,2023-08-11 09:23:30,15.08835275,8.93e-05,53.2176,339.7442,88.4784,271.631,7.3726e-05,8.86e-06,0.0,0 STARLINK-4120,1 53537U 22101L   23223.39132674  .00000886  00000-0  73726-4 0  9997,2 53537  53.2176 339.7442 0000893  88.4784 271.6310 15.08835275 54069,6917.895,95.438,540.378,539.142,0.0
53537.0,STARLINK-4120,PAYLOAD,2023-08-11 17:20:25,15.08848212,8.88e-05,53.2179,338.2566,90.9512,269.1582,0.0001903,2.743e-05,0.0,0 STARLINK-4120,1 53537U 22101L   23223.72252001  .00002743  00000-0  19030-3 0  9992,2 53537  53.2179 338.2566 0000888  90.9512 269.1582 15.08848212 54118,6917.855,95.437,540.335,539.106,0.0
53537.0,STARLINK-4120,PAYLOAD,2023-08-12 09:14:17,15.08840933,8.69e-05,53.2179,335.2837,84.1611,275.9481,8.1162e-05,1.004e-05,0.0,0 STARLINK-4120,1 53537U 22101L   23224.38492406  .00001004  00000-0  81162-4 0  9995,2 53537  53.2179 335.2837 0000869  84.1611 275.9481 15.08840933 54216,6917.878,95.437,540.344,539.141,0.0
53537.0,STARLINK-4120,PAYLOAD,2023-08-12 17:11:12,15.0884833,9.29e-05,53.2171,333.7952,105.215,254.8945,0.00010998,1.463e-05,0.0,0 STARLINK-4120,1 53537U 22101L   23224.71611864  .00001463  00000-0  10998-3 0  9990,2 53537  53.2171 333.7952 0000929 105.2150 254.8945 15.08848330 54264,6917.855,95.437,540.363,539.077,0.0
53537.0,STARLINK-4120,PAYLOAD,2023-08-13 13:51:13,15.08838622,9.12e-05,53.2181,329.9308,101.2413,258.8682,0.00010147,1.327e-05,0.0,0 STARLINK-4120,1 53537U 22101L   23225.57724448  .00001327  00000-0  10147-3 0  9993,2 53537  53.2181 329.9308 0000912 101.2413 258.8682 15.08838622 54396,6917.885,95.438,540.381,539.119,0.0
53537.0,STARLINK-4120,PAYLOAD,2023-08-14 10:31:15,15.08828558,0.0001055,53.2179,326.0646,102.808,257.3031,0.00024332,3.586e-05,0.0,0 STARLINK-4120,1 53537U 22101L   23226.43836865  .00003586  00000-0  24332-3 0  9996,2 53537  53.2179 326.0646 0001055 102.8080 257.3031 15.08828558 54526,6917.915,95.438,540.51,539.051,0.0
53537.0,STARLINK-4120,PAYLOAD,2023-08-14 23:14:19,15.08843695,0.000101,53.2183,323.6853,102.9588,257.1517,5.755e-05,6.28e-06,0.0,0 STARLINK-4120,1 53537U 22101L   23226.96828192  .00000628  00000-0  57550-4 0  9991,2 53537  53.2183 323.6853 0001010 102.9588 257.1517 15.08843695 54604,6917.869,95.437,540.433,539.035,0.0
53537.0,STARLINK-4120,PAYLOAD,2023-08-15 10:22:02,15.08832421,8.75e-05,53.2177,321.6065,94.3779,265.7313,7.0037e-05,8.27e-06,0.0,0 STARLINK-4120,1 53537U 22101L   23227.43197048  .00000827  00000-0  70037-4 0  9999,2 53537  53.2177 321.6065 0000875  94.3779 265.7313 15.08832421 54675,6917.904,95.438,540.374,539.163,0.0
53537.0,STARLINK-4120,PAYLOAD,2023-08-15 15:08:11,15.08842016,9.39e-05,53.2182,320.7138,82.4249,277.685,0.00010872,1.443e-05,0.0,0 STARLINK-4120,1 53537U 22101L   23227.63068420  .00001443  00000-0  10872-3 0  9997,2 53537  53.2182 320.7138 0000939  82.4249 277.6850 15.08842016 54706,6917.874,95.437,540.389,539.09,0.0
53537.0,STARLINK-4120,PAYLOAD,2023-08-16 10:12:49,15.0883352,9.22e-05,53.2183,317.1454,81.6575,278.4522,5.5796e-06,-1.99e-06,0.0,0 STARLINK-4120,1 53537U 22101L   23228.42557531 -.00000199  00000-0  55796-5 0  9995,2 53537  53.2183 317.1454 0000922  81.6575 278.4522 15.08833520 54821,6917.9,95.438,540.403,539.127,0.0
53537.0,STARLINK-4120,PAYLOAD,2023-08-16 16:34:21,15.08843372,0.0001035,53.218,315.9556,90.4178,269.6932,7.1293e-05,8.47e-06,0.0,0 STARLINK-4120,1 53537U 22101L   23228.69052726  .00000847  00000-0  71293-4 0  9998,2 53537  53.2180 315.9556 0001035  90.4178 269.6932 15.08843372 54867,6917.87,95.437,540.451,539.019,0.0
53537.0,STARLINK-4120,PAYLOAD,2023-08-17 22:46:41,15.08836757,0.0001303,53.2176,310.3045,85.7166,274.3975,7.4442e-05,8.97e-06,0.0,0 STARLINK-4120,1 53537U 22101L   23229.94909116  .00000897  00000-0  74442-4 0  9995,2 53537  53.2176 310.3045 0001303  85.7166 274.3975 15.08836757 55057,6917.89,95.438,540.657,538.854,0.0
53537.0,STARLINK-4120,PAYLOAD,2023-08-19 09:45:10,15.08840273,0.0001135,53.2169,303.7627,90.5199,269.5923,5.0751e-05,5.2e-06,0.0,0 STARLINK-4120,1 53537U 22101L   23231.40637160  .00000520  00000-0  50751-4 0  9996,2 53537  53.2169 303.7627 0001135  90.5199 269.5923 15.08840273 55275,6917.88,95.438,540.53,538.959,0.0
53537.0,STARLINK-4120,PAYLOAD,2023-08-20 11:11:20,15.08840249,0.0001156,53.2168,299.0072,77.7528,282.3594,6.4312e-05,7.36e-06,0.0,0 STARLINK-4120,1 53537U 22101L   23232.46621235  .00000736  00000-0  64312-4 0  9996,2 53537  53.2168 299.0072 0001156  77.7528 282.3594 15.08840249 55439,6917.88,95.438,540.544,538.945,0.0
53537.0,STARLINK-4120,PAYLOAD,2023-08-21 23:45:12,15.08840333,0.0001219,53.2171,292.1667,76.7855,283.3273,4.9051e-05,4.93e-06,0.0,0 STARLINK-4120,1 53537U 22101L   23233.98973333  .00000493  00000-0  49051-4 0  9996,2 53537  53.2171 292.1667 0001219  76.7855 283.3273 15.08840333 55663,6917.879,95.438,540.588,538.901,0.0
53537.0,STARLINK-4120,PAYLOAD,2023-08-23 04:22:09,15.08837903,0.0001269,53.2176,286.8153,96.9078,263.2059,1.8924e-05,1.3e-07,0.0,0 STARLINK-4120,1 53537U 22101L   23235.18205637  .00000013  00000-0  18924-4 0  9998,2 53537  53.2176 286.8153 0001269  96.9078 263.2059 15.08837903 55842,6917.887,95.438,540.63,538.874,0.0
53537.0,STARLINK-4120,PAYLOAD,2023-08-24 12:09:52,15.0884493,0.0001179,53.2167,280.8653,92.7291,267.3837,-4.938e-06,-3.66e-06,0.0,0 STARLINK-4120,1 53537U 22101L   23236.50685438 -.00000366  00000-0 -49380-5 0  9990,2 53537  53.2167 280.8653 0001179  92.7291 267.3837 15.08844930 56042,6917.865,95.437,540.546,538.915,0.0
53537.0,STARLINK-4120,PAYLOAD,2023-08-25 10:25:16,15.08840806,0.0001247,53.2167,276.7027,90.4989,269.6146,8.818e-05,1.116e-05,0.0,0 STARLINK-4120,1 53537U 22101L   23237.43421600  .00001116  00000-0  88180-4 0  9994,2 53537  53.2167 276.7027 0001247  90.4989 269.6146 15.08840806 56187,6917.878,95.438,540.606,538.88,0.0
53537.0,STARLINK-4120,PAYLOAD,2023-08-26 02:19:07,15.08839522,0.000141,53.2175,273.7298,81.2631,278.8521,5.5254e-05,5.92e-06,0.0,0 STARLINK-4120,1 53537U 22101L   23238.09661911  .00000592  00000-0  55254-4 0  9991,2 53537  53.2175 273.7298 0001410  81.2631 278.8521 15.08839522 56280,6917.882,95.438,540.722,538.771,0.0
53537.0,STARLINK-4120,PAYLOAD,2023-08-26 08:40:40,15.08841264,0.0001422,53.2174,272.5404,81.3026,278.8128,6.8086e-05,7.96e-06,0.0,0 STARLINK-4120,1 53537U 22101L   23238.36157771  .00000796  00000-0  68086-4 0  9998,2 53537  53.2174 272.5404 0001422  81.3026 278.8128 15.08841264 56321,6917.877,95.437,540.725,538.758,0.0
